HTV-X1                  
1 66174U 25241A   26090.49626030  .00001611  00000+0  62262-4 0  9995
2 66174  51.6379 327.9695 0007219 257.2835 102.7340 15.32487001 24283
SZ-21 MODULE            
1 66515U 25246C   26090.26396357  .00047078  00000+0  37632-3 0  9999
2 66515  41.4737  70.3854 0002250 217.0010 143.0678 15.70260620 21469
SHENZHOU-22             
1 66645U 25272A   26090.27313627  .00027460  00000+0  31138-3 0  9990
2 66645  41.4667  76.7249 0003724  77.1096 283.0159 15.61745340281159
SOYUZ-MS 28             
1 66664U 25275A   26090.13309952  .00011434  00000+0  21777-3 0  9997
2 66664  51.6341 326.3497 0006202 253.7499 106.2807 15.48671303559318
DUPLEX                  
1 66906U 98067XS  26089.96050600  .00034903  00000+0  46740-3 0  9990
2 66906  51.6299 322.9482 0003049 209.9904 150.0914 15.57650066 18448
ISS OBJECT XT           
1 66907U 98067XT  26089.99206508  .00266250  00000+0  15250-2 0  9997
2 66907  51.6233 316.3688 0006496 218.8764 141.1770 15.77474142 18536
ISS OBJECT XU           
1 66908U 98067XU  26089.98791627  .00279310  00000+0  15782-2 0  9999
2 66908  51.6237 316.3364 0006723 218.1981 141.8543 15.77741414 18533
SILVERSAT               
1 66909U 98067XV  26089.99737683  .00407567  00000+0  17359-2 0  9992
2 66909  51.6200 314.8852 0007665 225.3563 134.6816 15.83552073 18554
ISS OBJECT XW           
1 66910U 98067XW  26090.00129125  .00227945  00000+0  14085-2 0  9997
2 66910  51.6221 316.4232 0006710 215.2367 144.8190 15.75865069 18538
ISS OBJECT XX           
1 66911U 98067XX  26089.99227632  .00643331  17468-3  19754-2 0  9995
2 66911  51.6173 313.3117 0009698 230.4896 129.5254 15.91183694 18566
ISS OBJECT XY           
1 66912U 98067XY  26090.02560914  .00135589  00000+0  11755-2 0  9999
2 66912  51.6266 318.8692 0004598 214.4889 145.5810 15.68176459 18499
KNACKSAT-2              
1 67683U 98067XZ  26089.90238054  .00048681  00000+0  75035-3 0  9995
2 67683  51.6321 326.3110 0010183 263.1970  96.7862 15.53622032  8080
